{"type": "FeatureCollection", "features": [ {"type": "Feature", "properties": {"norad_id": 34681, "name": "COSMOS 2251 DEB", "group": "cosmos-2251-debris", "lat": -27.637511370484898, "lon": 137.67426550590667, "alt_km": 642.6144934679933, "timestamp": "2025-12-03T06:58:43.636955+00:00", "meta": {"OBJECT_NAME": "COSMOS 2251 DEB", "OBJECT_ID": "1993-036YB", "EPOCH": "2025-12-02T16:15:31.858848", "MEAN_MOTION": 14.82806504, "ECCENTRICITY": 0.0025705, "INCLINATION": 74.0621, "RA_OF_ASC_NODE": 310.2796, "ARG_OF_PERICENTER": 8.6173, "MEAN_ANOMALY": 167.56, "EPHEMERIS_TYPE": 0, "CLASSIFICATION_TYPE": "U", "NORAD_CAT_ID": 34681, "ELEMENT_SET_NO": 999, "REV_AT_EPOCH": 89121, "BSTAR": 0.0019721, "MEAN_MOTION_DOT": 0.0001605, "MEAN_MOTION_DDOT": 0}, "tle": {"line1": "1 34681U 93036YB  25336.67745207  .00016050  00000+0  19721-2 0  9993", "line2": "2 34681  74.0621 310.2796 0025705   8.6173 167.5600 14.82806504891210"}}, "geometry": {"type": "Point", "coordinates": [137.67426550590667, -27.637511370484898]}}, {"type": "Feature", "properties": {"norad_id": 34682, "name": "COSMOS 2251 DEB", "group": "cosmos-2251-debris", "lat": 60.50002912831908, "lon": 131.37049997624763, "alt_km": 703.9532195282864, "timestamp": "2025-12-03T06:58:43.636966+00:00", "meta": {"OBJECT_NAME": "COSMOS 2251 DEB", "OBJECT_ID": "1993-036YC", "EPOCH": "2025-12-02T09:32:40.157664", "MEAN_MOTION": 14.5876009, "ECCENTRICITY": 0.00187596, "INCLINATION": 74.0384, "RA_OF_ASC_NODE": 102.681, "ARG_OF_PERICENTER": 235.8907, "MEAN_ANOMALY": 180.8441, "EPHEMERIS_TYPE": 0, "CLASSIFICATION_TYPE": "U", "NORAD_CAT_ID": 34682, "ELEMENT_SET_NO": 999, "REV_AT_EPOCH": 88535, "BSTAR": 0.0012160177, "MEAN_MOTION_DOT": 5.669e-05, "MEAN_MOTION_DDOT": 0}, "tle": {"line1": "1 34682U 93036YC  25336.39768701  .00005669  00000+0  12160-2 0  9991", "line2": "2 34682  74.0384 102.6810 0018759 235.8907 180.8441 14.58760090885358"}}, "geometry": {"type": "Point", "coordinates": [131.37049997624763, 60.50002912831908]}}, {"type": "Feature", "properties": {"norad_id": 34683, "name": "COSMOS 2251 DEB", "group": "cosmos-2251-debris", "lat": 27.904358834794213, "lon": 119.15534187282262, "alt_km": 690.7534959515151, "timestamp": "2025-12-03T06:58:43.636976+00:00", "meta": {"OBJECT_NAME": "COSMOS 2251 DEB", "OBJECT_ID": "1993-036YD", "EPOCH": "2025-12-02T19:56:32.027136", "MEAN_MOTION": 14.6424748, "ECCENTRICITY": 0.001891, "INCLINATION": 74.028, "RA_OF_ASC_NODE": 111.315, "ARG_OF_PERICENTER": 226.2132, "MEAN_ANOMALY": 259.9098, "EPHEMERIS_TYPE": 0, "CLASSIFICATION_TYPE": "U", "NORAD_CAT_ID": 34683, "ELEMENT_SET_NO": 999, "REV_AT_EPOCH": 88203, "BSTAR": 0.0018739, "MEAN_MOTION_DOT": 9.885e-05, "MEAN_MOTION_DDOT": 0}, "tle": {"line1": "1 34683U 93036YD  25336.83092624  .00009885  00000+0  18739-2 0  9997", "line2": "2 34683  74.0280 111.3150 0018910 226.2132 259.9098 14.64247480882039"}}, "geometry": {"type": "Point", "coordinates": [119.15534187282262, 27.904358834794213]}}, {"type": "Feature", "properties": {"norad_id": 34685, "name": "COSMOS 2251 DEB", "group": "cosmos-2251-debris", "lat": 52.610779182896565, "lon": -171.24680625747428, "alt_km": 704.828601360955, "timestamp": "2025-12-03T06:58:43.636986+00:00", "meta": {"OBJECT_NAME": "COSMOS 2251 DEB", "OBJECT_ID": "1993-036YF", "EPOCH": "2025-12-02T19:15:49.373856", "MEAN_MOTION": 14.573601, "ECCENTRICITY": 0.0014451, "INCLINATION": 74.0291, "RA_OF_ASC_NODE": 167.6736, "ARG_OF_PERICENTER": 271.601, "MEAN_ANOMALY": 104.1854, "EPHEMERIS_TYPE": 0, "CLASSIFICATION_TYPE": "U", "NORAD_CAT_ID": 34685, "ELEMENT_SET_NO": 999, "REV_AT_EPOCH": 88387, "BSTAR": 0.0012133, "MEAN_MOTION_DOT": 5.481e-05, "MEAN_MOTION_DDOT": 0}, "tle": {"line1": "1 34685U 93036YF  25336.80265479  .00005481  00000+0  12133-2 0  9996", "line2": "2 34685  74.0291 167.6736 0014451 271.6010 104.1854 14.57360100883873"}}, "geometry": {"type": "Point", "coordinates": [-171.24680625747428, 52.610779182896565]}}, {"type": "Feature", "properties": {"norad_id": 34689, "name": "COSMOS 2251 DEB", "group": "cosmos-2251-debris", "lat": -71.57444007905517, "lon": 118.71963812847277, "alt_km": 777.0382624316362, "timestamp": "2025-12-03T06:58:43.636996+00:00", "meta": {"OBJECT_NAME": "COSMOS 2251 DEB", "OBJECT_ID": "1993-036YK", "EPOCH": "2025-12-01T04:52:05.077056", "MEAN_MOTION": 14.04150485, "ECCENTRICITY": 0.0229843, "INCLINATION": 74.0888, "RA_OF_ASC_NODE": 243.4543, "ARG_OF_PERICENTER": 314.8144, "MEAN_ANOMALY": 197.2792, "EPHEMERIS_TYPE": 0, "CLASSIFICATION_TYPE": "U", "NORAD_CAT_ID": 34689, "ELEMENT_SET_NO": 999, "REV_AT_EPOCH": 84179, "BSTAR": 0.0056499, "MEAN_MOTION_DOT": 0.00011323, "MEAN_MOTION_DDOT": 0}, "tle": {"line1": "1 34689U 93036YK  25335.20283654  .00011323  00000+0  56499-2 0  9993", "line2": "2 34689  74.0888 243.4543 0229843 314.8144 197.2792 14.04150485841793"}}, "geometry": {"type": "Point", "coordinates": [118.71963812847277, -71.57444007905517]}}, {"type": "Feature", "properties": {"norad_id": 34721, "name": "COSMOS 2251 DEB", "group": "cosmos-2251-debris", "lat": -5.578877900572075, "lon": 164.25843980894547, "alt_km": 926.1102426841771, "timestamp": "2025-12-03T06:58:43.637007+00:00", "meta": {"OBJECT_NAME": "COSMOS 2251 DEB", "OBJECT_ID": "1993-036YP", "EPOCH": "2025-12-02T07:48:06.027264", "MEAN_MOTION": 13.96762831, "ECCENTRICITY": 0.022397, "INCLINATION": 73.9234, "RA_OF_ASC_NODE": 344.3187, "ARG_OF_PERICENTER": 285.1168, "MEAN_ANOMALY": 89.0422, "EPHEMERIS_TYPE": 0, "CLASSIFICATION_TYPE": "U", "NORAD_CAT_ID": 34721, "ELEMENT_SET_NO": 999, "REV_AT_EPOCH": 85004, "BSTAR": 0.0021289, "MEAN_MOTION_DOT": 3.628e-05, "MEAN_MOTION_DDOT": 0}, "tle": {"line1": "1 34721U 93036YP  25336.32506976  .00003628  00000+0  21289-2 0  9997", "line2": "2 34721  73.9234 344.3187 0223970 285.1168  89.0422 13.96762831850049"}}, "geometry": {"type": "Point", "coordinates": [164.25843980894547, -5.578877900572075]}}, {"type": "Feature", "properties": {"norad_id": 34722, "name": "COSMOS 2251 DEB", "group": "cosmos-2251-debris", "lat": -71.1856305017274, "lon": -128.94559167843718, "alt_km": 745.7463761216277, "timestamp": "2025-12-03T06:58:43.637017+00:00", "meta": {"OBJECT_NAME": "COSMOS 2251 DEB", "OBJECT_ID": "1993-036YQ", "EPOCH": "2025-12-02T18:41:38.267232", "MEAN_MOTION": 14.11879532, "ECCENTRICITY": 0.0167509, "INCLINATION": 73.8718, "RA_OF_ASC_NODE": 353.835, "ARG_OF_PERICENTER": 281.1063, "MEAN_ANOMALY": 259.02, "EPHEMERIS_TYPE": 0, "CLASSIFICATION_TYPE": "U", "NORAD_CAT_ID": 34722, "ELEMENT_SET_NO": 999, "REV_AT_EPOCH": 86104, "BSTAR": 0.0010542, "MEAN_MOTION_DOT": 2.171e-05, "MEAN_MOTION_DDOT": 0}, "tle": {"line1": "1 34722U 93036YQ  25336.77891513  .00002171  00000+0  10542-2 0  9993", "line2": "2 34722  73.8718 353.8350 0167509 281.1063 259.0200 14.11879532861048"}}, "geometry": {"type": "Point", "coordinates": [-128.94559167843718, -71.1856305017274]}}, {"type": "Feature", "properties": {"norad_id": 34726, "name": "COSMOS 2251 DEB", "group": "cosmos-2251-debris", "lat": 62.11794818452181, "lon": 151.57767107621706, "alt_km": 667.2442817873953, "timestamp": "2025-12-03T06:58:43.637028+00:00", "meta": {"OBJECT_NAME": "COSMOS 2251 DEB", "OBJECT_ID": "1993-036YU", "EPOCH": "2025-12-02T12:21:53.330976", "MEAN_MOTION": 14.59418745, "ECCENTRICITY": 0.00425429, "INCLINATION": 74.0292, "RA_OF_ASC_NODE": 5.828, "ARG_OF_PERICENTER": 159.654, "MEAN_ANOMALY": 200.6333, "EPHEMERIS_TYPE": 0, "CLASSIFICATION_TYPE": "U", "NORAD_CAT_ID": 34726, "ELEMENT_SET_NO": 999, "REV_AT_EPOCH": 88353, "BSTAR": 0.00052653904, "MEAN_MOTION_DOT": 2.497e-05, "MEAN_MOTION_DDOT": 0}, "tle": {"line1": "1 34726U 93036YU  25336.51520059  .00002497  00000+0  52654-3 0  9995", "line2": "2 34726  74.0292   5.8280 0042542 159.6540 200.6333 14.59418745883530"}}, "geometry": {"type": "Point", "coordinates": [151.57767107621706, 62.11794818452181]}}, {"type": "Feature", "properties": {"norad_id": 34728, "name": "COSMOS 2251 DEB", "group": "cosmos-2251-debris", "lat": -32.31108094677403, "lon": -100.30862358400353, "alt_km": 671.5829896199002, "timestamp": "2025-12-03T06:58:43.637038+00:00", "meta": {"OBJECT_NAME": "COSMOS 2251 DEB", "OBJECT_ID": "1993-036YW", "EPOCH": "2025-11-30T13:49:42.045312", "MEAN_MOTION": 14.70651405, "ECCENTRICITY": 0.0040689, "INCLINATION": 74.0169, "RA_OF_ASC_NODE": 275.4077, "ARG_OF_PERICENTER": 76.4781, "MEAN_ANOMALY": 284.0918, "EPHEMERIS_TYPE": 0, "CLASSIFICATION_TYPE": "U", "NORAD_CAT_ID": 34728, "ELEMENT_SET_NO": 999, "REV_AT_EPOCH": 88621, "BSTAR": 0.00075074, "MEAN_MOTION_DOT": 4.599e-05, "MEAN_MOTION_DDOT": 0}, "tle": {"line1": "1 34728U 93036YW  25334.57618108  .00004599  00000+0  75074-3 0  9990", "line2": "2 34728  74.0169 275.4077 0040689  76.4781 284.0918 14.70651405886215"}}, "geometry": {"type": "Point", "coordinates": [-100.30862358400353, -32.31108094677403]}}, {"type": "Feature", "properties": {"norad_id": 34729, "name": "COSMOS 2251 DEB", "group": "cosmos-2251-debris", "lat": -57.38416937012635, "lon": -9.461873256864308, "alt_km": 636.521576159882, "timestamp": "2025-12-03T06:58:43.637048+00:00", "meta": {"OBJECT_NAME": "COSMOS 2251 DEB", "OBJECT_ID": "1993-036YX", "EPOCH": "2025-12-02T03:59:29.960736", "MEAN_MOTION": 14.82315258, "ECCENTRICITY": 0.00122865, "INCLINATION": 74.0195, "RA_OF_ASC_NODE": 19.3666, "ARG_OF_PERICENTER": 145.0908, "MEAN_ANOMALY": 275.6495, "EPHEMERIS_TYPE": 0, "CLASSIFICATION_TYPE": "U", "NORAD_CAT_ID": 34729, "ELEMENT_SET_NO": 999, "REV_AT_EPOCH": 88301, "BSTAR": 0.0020682703, "MEAN_MOTION_DOT": 0.00016565, "MEAN_MOTION_DDOT": 0}, "tle": {"line1": "1 34729U 93036YX  25336.16631899  .00016565  00000+0  20683-2 0  9991", "line2": "2 34729  74.0195  19.3666 0012286 145.0908 275.6495 14.82315258883017"}}, "geometry": {"type": "Point", "coordinates": [-9.461873256864308, -57.38416937012635]}}]}